GPS BIIR-5  (PRN 22)    
1 26407U 00040A   26161.31026118  .00000070  00000+0  00000+0 0  9996
2 26407  54.8522 215.4356 0121120 302.4359  56.0148  2.00557603189804
GPS BIIR-8  (PRN 16)    
1 27663U 03005A   26160.21826243  .00000060  00000+0  00000+0 0  9999
2 27663  54.8834 215.2857 0147952  53.0758  12.8205  2.00560980171157
GPS BIIR-11 (PRN 19)    
1 28190U 04009A   26160.91617043 -.00000041  00000+0  00000+0 0  9993
2 28190  54.8360 275.9812 0115845 172.7655 190.3522  2.00554919162803
GPS BIIR-13 (PRN 02)    
1 28474U 04045A   26158.35392840 -.00000059  00000+0  00000+0 0  9997
2 28474  55.1426 325.2921 0169828 316.1566  61.9153  2.00555496158236
GPS BIIRM-1 (PRN 17)    
1 28874U 05038A   26160.37957303 -.00000038  00000+0  00000+0 0  9997
2 28874  54.8846 273.4928 0127814 296.0939  67.9233  2.00566187151688
GPS BIIRM-2 (PRN 31)    
1 29486U 06042A   26161.26557962  .00000113  00000+0  00000+0 0  9992
2 29486  54.7099 151.6138 0106495  54.2484 127.8770  2.00570235144254
GPS BIIRM-3 (PRN 12)    
1 29601U 06052A   26159.94234806  .00000059  00000+0  00000+0 0  9992
2 29601  54.9359 214.3332 0085354  90.7851 270.2705  2.00557765143242
GPS BIIRM-4 (PRN 15)    
1 32260U 07047A   26160.74583911 -.00000022  00000+0  00000+0 0  9997
2 32260  54.0898  80.3723 0166500  87.2322 274.6705  2.00555560136665
GPS BIIRM-5 (PRN 29)    
1 32384U 07062A   26159.58599712 -.00000038  00000+0  00000+0 0  9994
2 32384  55.0388 274.4987 0035585 165.0710 204.7147  2.00559578135340
GPS BIIRM-6 (PRN 07)    
1 32711U 08012A   26160.15929060  .00000112  00000+0  00000+0 0  9994
2 32711  54.4963 150.2454 0211107 247.7440 110.0124  2.00572211133598
GPS BIIRM-8 (PRN 05)    
1 35752U 09043A   26161.38447792 -.00000065  00000+0  00000+0 0  9998
2 35752  56.2061  27.7190 0053730  82.9103  92.0957  2.00554574123225
GPS BIIF-1  (PRN 25)    
1 36585U 10022A   26160.97610619  .00000079  00000+0  00000+0 0  9990
2 36585  54.2708 208.8526 0126324  66.1291 292.4230  2.00562056117444
GPS BIIF-3  (PRN 24)    
1 38833U 12053A   26160.33917010  .00000103  00000+0  00000+0 0  9997
2 38833  53.5846 143.9208 0179848  65.6483 296.2179  2.00567341 99286
GPS BIIF-4  (PRN 27)    
1 39166U 13023A   26160.20589165 -.00000034  00000+0  00000+0 0  9991
2 39166  54.5104 269.2989 0141592  51.0120 310.2585  2.00563489 95726
GPS BIIF-5  (PRN 30)    
1 39533U 14008A   26160.20747882  .00000109  00000+0  00000+0 0  9997
2 39533  53.6534 149.6452 0084239 231.1478 128.1054  2.00559266 89524
GPS BIIF-6  (PRN 06)    
1 39741U 14026A   26160.98149509 -.00000059  00000+0  00000+0 0  9990
2 39741  56.5019 331.7980 0038230 326.6683  33.0994  2.00561453 88395
GPS BIIF-7  (PRN 09)    
1 40105U 14045A   26161.07317524 -.00000008  00000+0  00000+0 0  9996
2 40105  55.3487  88.7484 0033003 118.3358 241.9880  2.00557900 85936
GPS BIIF-8  (PRN 03)    
1 40294U 14068A   26161.44223591 -.00000063  00000+0  00000+0 0  9992
2 40294  56.9830  31.2146 0066900  70.3264 290.4484  2.00575764 85079
GPS BIIF-9  (PRN 26)    
1 40534U 15013A   26161.58060431  .00000090  00000+0  00000+0 0  9996
2 40534  53.1683 204.4510 0109414  40.1361 320.7495  2.00551780 81696
GPS BIIF-10 (PRN 08)    
1 40730U 15033A   26160.24350194 -.00000032  00000+0  00000+0 0  9993
2 40730  53.9888 267.4142 0115035  30.2017 330.4770  2.00556613 79830
GPS BIIF-11 (PRN 10)    
1 41019U 15062A   26160.29992778 -.00000064  00000+0  00000+0 0  9996
2 41019  56.9540  31.1152 0111654 231.1327 127.9172  2.00566961 77677
GPS BIIF-12 (PRN 32)    
1 41328U 16007A   26158.89450904  .00000008  00000+0  00000+0 0  9999
2 41328  55.5185  89.8281 0096231 247.4008 111.5747  2.00552243 75653
GPS BIII-1  (PRN 04)    
1 43873U 18109A   26161.28377947 -.00000002  00000+0  00000+0 0  9998
2 43873  55.6776  92.4596 0038193 198.0647 341.1401  2.00561290 54937
GPS BIII-2  (PRN 18)    
1 44506U 19056A   26160.66603872 -.00000060  00000+0  00000+0 0  9998
2 44506  55.6415 331.4421 0061619 197.5538 159.0803  2.00569631 49917
GPS BIII-3  (PRN 23)    
1 45854U 20041A   26161.50914235 -.00000064  00000+0  00000+0 0  9997
2 45854  56.6651  29.2031 0063585 204.6514 339.4495  2.00558724 43909
GPS BIII-4  (PRN 14)    
1 46826U 20078A   26160.36362656  .00000068  00000+0  00000+0 0  9997
2 46826  53.9808 211.0963 0073236 206.9943 206.0906  2.00564862 41356
GPS BIII-5  (PRN 11)    
1 48859U 21054A   26161.53191556 -.00000063  00000+0  00000+0 0  9995
2 48859  55.1779 332.7276 0025267 228.5399 134.3133  2.00569308 36628
GPS BIII-6  (PRN 28)    
1 55268U 23009A   26158.73659273  .00000105  00000+0  00000+0 0  9998
2 55268  55.1217 148.8905 0006217 315.6663 226.9396  2.00572207 25054
GPS BIII-7  (PRN 01)    
1 62339U 24242A   26160.86685300 -.00000062  00000+0  00000+0 0  9995
2 62339  54.8503 334.4786 0017316   3.9741 359.2011  2.00571348 11112
GPS BIII-8  (PRN 21)    
1 64202U 25116A   26155.36633038 -.00000073  00000+0  00000+0 0  9999
2 64202  55.2259  31.6468 0008452 337.8257 196.1658  2.00577081  7616
GPS BIII-9  (PRN 20)    
1 67588U 26017A   26159.22322786  .00000005  00000+0  00000+0 0  9998
2 67588  55.0831  89.1152 0021773 257.0982 102.6538  2.00571164431433
GPS BIII-10 (PRN 13)    
1 68791U 26087A   26158.43909353  .00000057  00000+0  00000+0 0  9992
2 68791  54.9638 208.1735 0020931 107.2972 251.8874  2.00569573   638
